COSMOS 1933             
1 18958U 88020A   26017.82697085  .00003372  00000+0  16688-3 0  9996
2 18958  82.5153 301.2174 0005455  35.7595 324.4003 15.17469992 42519
SL-3 R/B                
1 19046U 88032B   26017.89614773  .00005689  00000+0  27110-3 0  9993
2 19046  97.5112   1.3841 0028045  53.5771 306.8043 15.19165211 44397
SL-16 R/B               
1 19120U 88039B   26017.89474384  .00000246  00000+0  13874-3 0  9991
2 19120  71.0138 175.9521 0019921  54.3501 305.9476 14.19606805951172
COSMOS 1953             
1 19210U 88050A   26017.80726881  .00006302  00000+0  23340-3 0  9995
2 19210  82.5063 209.3763 0010677 307.9852  52.0422 15.27407288 30017
SL-8 R/B                
1 19257U 88053B   26017.99178988  .00000080  00000+0  34487-4 0  9990
2 19257  74.0453 205.9053 0019473  36.7676 125.1162 14.38880675969307
COSMOS 1975             
1 19573U 88093A   26017.89349390  .00007375  00000+0  27630-3 0  9996
2 19573  82.5204 168.6193 0011429 355.2648   4.8481 15.27044620 11651
SL-14 R/B               
1 19574U 88093B   26017.96608341  .00000449  00000+0  48938-4 0  9999
2 19574  82.5305  89.6712 0020144 202.0919 330.7381 14.85594177993500
SL-16 R/B               
1 19650U 88102B   26017.97702530  .00000260  00000+0  15543-3 0  9997
2 19650  70.9986 258.1988 0011971  87.8472 272.4022 14.16145559919715
INTERCOSMOS 24          
1 20261U 89080A   26017.80960949  .00000299  00000+0  79877-4 0  9998
2 20261  82.6080 137.5064 1188937  50.8924 319.1964 12.59488572660396
SL-14 R/B               
1 20262U 89080C   26017.90660255  .00000225  00000+0  67875-4 0  9991
2 20262  82.5914 205.7950 1229680 300.9137  47.6668 12.50439804653807
DELTA 1 R/B             
1 20323U 89089B   26017.57768369  .00000337  00000+0  92386-4 0  9995
2 20323  97.0736 233.1332 0067600 284.6098  74.7611 14.50607880888321
ARIANE 40 R/B           
1 20443U 90005H   26017.87596028  .00000226  00000+0  85603-4 0  9993
2 20443  98.3187  80.0238 0010018   4.5269 355.6008 14.39827598885495
