CCSDS_OMM_VERS = 2.0
CREATION_DATE  = 
ORIGINATOR     = 

OBJECT_NAME    = COSMOS 1933
OBJECT_ID      = 1988-020A
CENTER_NAME    = EARTH
REF_FRAME      = TEME
TIME_SYSTEM    = UTC
MEAN_ELEMENT_THEORY = SGP/SGP4

EPOCH          = 2026-01-17T19:50:50.281440
MEAN_MOTION    = 15.17469992
ECCENTRICITY   = .00054556
INCLINATION    = 82.5153
RA_OF_ASC_NODE = 301.2174
ARG_OF_PERICENTER = 35.7595
MEAN_ANOMALY   = 324.4003

EPHEMERIS_TYPE = 0
CLASSIFICATION_TYPE = U
NORAD_CAT_ID   = 18958
ELEMENT_SET_NO = 999
REV_AT_EPOCH   = 4251
BSTAR          = .16687652E-3
MEAN_MOTION_DOT = .3372E-4
MEAN_MOTION_DDOT = 0

CCSDS_OMM_VERS = 2.0
CREATION_DATE  = 
ORIGINATOR     = 

OBJECT_NAME    = SL-3 R/B
OBJECT_ID      = 1988-032B
CENTER_NAME    = EARTH
REF_FRAME      = TEME
TIME_SYSTEM    = UTC
MEAN_ELEMENT_THEORY = SGP/SGP4

EPOCH          = 2026-01-17T21:30:27.163872
MEAN_MOTION    = 15.19165211
ECCENTRICITY   = .00280459
INCLINATION    = 97.5112
RA_OF_ASC_NODE = 1.3841
ARG_OF_PERICENTER = 53.5771
MEAN_ANOMALY   = 306.8043

EPHEMERIS_TYPE = 0
CLASSIFICATION_TYPE = U
NORAD_CAT_ID   = 19046
ELEMENT_SET_NO = 999
REV_AT_EPOCH   = 4439
BSTAR          = .2710994E-3
MEAN_MOTION_DOT = .5689E-4
MEAN_MOTION_DDOT = 0

CCSDS_OMM_VERS = 2.0
CREATION_DATE  = 
ORIGINATOR     = 

OBJECT_NAME    = SL-16 R/B
OBJECT_ID      = 1988-039B
CENTER_NAME    = EARTH
REF_FRAME      = TEME
TIME_SYSTEM    = UTC
MEAN_ELEMENT_THEORY = SGP/SGP4

EPOCH          = 2026-01-17T21:28:25.867776
MEAN_MOTION    = 14.19606805
ECCENTRICITY   = .00199215
INCLINATION    = 71.0138
RA_OF_ASC_NODE = 175.9521
ARG_OF_PERICENTER = 54.3501
MEAN_ANOMALY   = 305.9476

EPHEMERIS_TYPE = 0
CLASSIFICATION_TYPE = U
NORAD_CAT_ID   = 19120
ELEMENT_SET_NO = 999
REV_AT_EPOCH   = 95117
BSTAR          = .13873844E-3
MEAN_MOTION_DOT = .246E-5
MEAN_MOTION_DDOT = 0

CCSDS_OMM_VERS = 2.0
CREATION_DATE  = 
ORIGINATOR     = 

OBJECT_NAME    = COSMOS 1953
OBJECT_ID      = 1988-050A
CENTER_NAME    = EARTH
REF_FRAME      = TEME
TIME_SYSTEM    = UTC
MEAN_ELEMENT_THEORY = SGP/SGP4

EPOCH          = 2026-01-17T19:22:28.025184
MEAN_MOTION    = 15.27407288
ECCENTRICITY   = .00106776
INCLINATION    = 82.5063
RA_OF_ASC_NODE = 209.3763
ARG_OF_PERICENTER = 307.9852
MEAN_ANOMALY   = 52.0422

EPHEMERIS_TYPE = 0
CLASSIFICATION_TYPE = U
NORAD_CAT_ID   = 19210
ELEMENT_SET_NO = 999
REV_AT_EPOCH   = 3001
BSTAR          = .23339835E-3
MEAN_MOTION_DOT = .6302E-4
MEAN_MOTION_DDOT = 0

CCSDS_OMM_VERS = 2.0
CREATION_DATE  = 
ORIGINATOR     = 

OBJECT_NAME    = SL-8 R/B
OBJECT_ID      = 1988-053B
CENTER_NAME    = EARTH
REF_FRAME      = TEME
TIME_SYSTEM    = UTC
MEAN_ELEMENT_THEORY = SGP/SGP4

EPOCH          = 2026-01-17T23:48:10.645632
MEAN_MOTION    = 14.38880675
ECCENTRICITY   = .00194735
INCLINATION    = 74.0453
RA_OF_ASC_NODE = 205.9053
ARG_OF_PERICENTER = 36.7676
MEAN_ANOMALY   = 125.1162

EPHEMERIS_TYPE = 0
CLASSIFICATION_TYPE = U
NORAD_CAT_ID   = 19257
ELEMENT_SET_NO = 999
REV_AT_EPOCH   = 96930
BSTAR          = .34486513E-4
MEAN_MOTION_DOT = .8E-6
MEAN_MOTION_DDOT = 0

CCSDS_OMM_VERS = 2.0
CREATION_DATE  = 
ORIGINATOR     = 

OBJECT_NAME    = COSMOS 1975
OBJECT_ID      = 1988-093A
CENTER_NAME    = EARTH
REF_FRAME      = TEME
TIME_SYSTEM    = UTC
MEAN_ELEMENT_THEORY = SGP/SGP4

EPOCH          = 2026-01-17T21:26:37.872960
MEAN_MOTION    = 15.27044620
ECCENTRICITY   = .00114295
INCLINATION    = 82.5204
RA_OF_ASC_NODE = 168.6193
ARG_OF_PERICENTER = 355.2648
MEAN_ANOMALY   = 4.8481

EPHEMERIS_TYPE = 0
CLASSIFICATION_TYPE = U
NORAD_CAT_ID   = 19573
ELEMENT_SET_NO = 999
REV_AT_EPOCH   = 1165
BSTAR          = .27629797E-3
MEAN_MOTION_DOT = .7375E-4
MEAN_MOTION_DDOT = 0

CCSDS_OMM_VERS = 2.0
CREATION_DATE  = 
ORIGINATOR     = 

OBJECT_NAME    = SL-14 R/B
OBJECT_ID      = 1988-093B
CENTER_NAME    = EARTH
REF_FRAME      = TEME
TIME_SYSTEM    = UTC
MEAN_ELEMENT_THEORY = SGP/SGP4

EPOCH          = 2026-01-17T23:11:09.606624
MEAN_MOTION    = 14.85594177
ECCENTRICITY   = .00201444
INCLINATION    = 82.5305
RA_OF_ASC_NODE = 89.6712
ARG_OF_PERICENTER = 202.0919
MEAN_ANOMALY   = 330.7381

EPHEMERIS_TYPE = 0
CLASSIFICATION_TYPE = U
NORAD_CAT_ID   = 19574
ELEMENT_SET_NO = 999
REV_AT_EPOCH   = 99350
BSTAR          = .48937564E-4
MEAN_MOTION_DOT = .449E-5
MEAN_MOTION_DDOT = 0

CCSDS_OMM_VERS = 2.0
CREATION_DATE  = 
ORIGINATOR     = 

OBJECT_NAME    = SL-16 R/B
OBJECT_ID      = 1988-102B
CENTER_NAME    = EARTH
REF_FRAME      = TEME
TIME_SYSTEM    = UTC
MEAN_ELEMENT_THEORY = SGP/SGP4

EPOCH          = 2026-01-17T23:26:54.985920
MEAN_MOTION    = 14.16145559
ECCENTRICITY   = .00119714
INCLINATION    = 70.9986
RA_OF_ASC_NODE = 258.1988
ARG_OF_PERICENTER = 87.8472
MEAN_ANOMALY   = 272.4022

EPHEMERIS_TYPE = 0
CLASSIFICATION_TYPE = U
NORAD_CAT_ID   = 19650
ELEMENT_SET_NO = 999
REV_AT_EPOCH   = 91971
BSTAR          = .15542948E-3
MEAN_MOTION_DOT = .26E-5
MEAN_MOTION_DDOT = 0

CCSDS_OMM_VERS = 2.0
CREATION_DATE  = 
ORIGINATOR     = 

OBJECT_NAME    = INTERCOSMOS 24
OBJECT_ID      = 1989-080A
CENTER_NAME    = EARTH
REF_FRAME      = TEME
TIME_SYSTEM    = UTC
MEAN_ELEMENT_THEORY = SGP/SGP4

EPOCH          = 2026-01-17T19:25:50.259936
MEAN_MOTION    = 12.59488572
ECCENTRICITY   = .11889378
INCLINATION    = 82.6080
RA_OF_ASC_NODE = 137.5064
ARG_OF_PERICENTER = 50.8924
MEAN_ANOMALY   = 319.1964

EPHEMERIS_TYPE = 0
CLASSIFICATION_TYPE = U
NORAD_CAT_ID   = 20261
ELEMENT_SET_NO = 999
REV_AT_EPOCH   = 66039
BSTAR          = .79877067E-4
MEAN_MOTION_DOT = .299E-5
MEAN_MOTION_DDOT = 0

CCSDS_OMM_VERS = 2.0
CREATION_DATE  = 
ORIGINATOR     = 

OBJECT_NAME    = SL-14 R/B
OBJECT_ID      = 1989-080C
CENTER_NAME    = EARTH
REF_FRAME      = TEME
TIME_SYSTEM    = UTC
MEAN_ELEMENT_THEORY = SGP/SGP4

EPOCH          = 2026-01-17T21:45:30.460320
MEAN_MOTION    = 12.50439804
ECCENTRICITY   = .12296801
INCLINATION    = 82.5914
RA_OF_ASC_NODE = 205.7950
ARG_OF_PERICENTER = 300.9137
MEAN_ANOMALY   = 47.6668

EPHEMERIS_TYPE = 0
CLASSIFICATION_TYPE = U
NORAD_CAT_ID   = 20262
ELEMENT_SET_NO = 999
REV_AT_EPOCH   = 65380
BSTAR          = .67875063E-4
MEAN_MOTION_DOT = .225E-5
MEAN_MOTION_DDOT = 0

CCSDS_OMM_VERS = 2.0
CREATION_DATE  = 
ORIGINATOR     = 

OBJECT_NAME    = DELTA 1 R/B
OBJECT_ID      = 1989-089B
CENTER_NAME    = EARTH
REF_FRAME      = TEME
TIME_SYSTEM    = UTC
MEAN_ELEMENT_THEORY = SGP/SGP4

EPOCH          = 2026-01-17T13:51:51.870816
MEAN_MOTION    = 14.50607880
ECCENTRICITY   = .00676005
INCLINATION    = 97.0736
RA_OF_ASC_NODE = 233.1332
ARG_OF_PERICENTER = 284.6098
MEAN_ANOMALY   = 74.7611

EPHEMERIS_TYPE = 0
CLASSIFICATION_TYPE = U
NORAD_CAT_ID   = 20323
ELEMENT_SET_NO = 999
REV_AT_EPOCH   = 88832
BSTAR          = .92386371E-4
MEAN_MOTION_DOT = .337E-5
MEAN_MOTION_DDOT = 0

CCSDS_OMM_VERS = 2.0
CREATION_DATE  = 
ORIGINATOR     = 

OBJECT_NAME    = ARIANE 40 R/B
OBJECT_ID      = 1990-005H
CENTER_NAME    = EARTH
REF_FRAME      = TEME
TIME_SYSTEM    = UTC
MEAN_ELEMENT_THEORY = SGP/SGP4

EPOCH          = 2026-01-17T21:01:22.968192
MEAN_MOTION    = 14.39827598
ECCENTRICITY   = .00100189
INCLINATION    = 98.3187
RA_OF_ASC_NODE = 80.0238
ARG_OF_PERICENTER = 4.5269
MEAN_ANOMALY   = 355.6008

EPHEMERIS_TYPE = 0
CLASSIFICATION_TYPE = U
NORAD_CAT_ID   = 20443
ELEMENT_SET_NO = 999
REV_AT_EPOCH   = 88549
BSTAR          = .85603359E-4
MEAN_MOTION_DOT = .226E-5
MEAN_MOTION_DDOT = 0

